ONEWEB-0346             
1 49212U 21083AC  24080.21177654  .00000004  00000+0 -21458-4 0  9997
2 49212  87.9185 138.4913 0002496 103.6393 256.5017 13.18683799123336
ONEWEB-0348             
1 49213U 21083AD  24080.03170914  .00000060  00000+0  11552-3 0  9994
2 49213  87.9132  77.4575 0002391 104.0589 256.0810 13.20773010129983
ONEWEB-0350             
1 49214U 21083AE  24079.14423289 -.00000236  00000+0 -68256-3 0  9991
2 49214  87.8933 123.4679 0002102 108.9948 251.1409 13.13468638123287
ONEWEB-0351             
1 49215U 21083AF  24079.49508809  .00000091  00000+0  19291-3 0  9994
2 49215  87.9127  77.5675 0001430  57.8598 302.2674 13.20769644128573
ONEWEB-0352             
1 49216U 21083AG  24080.19168241  .00000325  00000+0  85431-3 0  9995
2 49216  87.8933 123.2881 0001717  96.9852 263.1472 13.13469315124819
ONEWEB-0354             
1 49217U 21083AH  24080.42943429  .00000039  00000+0  63278-4 0  9999
2 49217  87.9129  77.3627 0001774  99.7641 260.3692 13.20772664130042
ONEWEB-0355             
1 49218U 21083AJ  24079.15534363 -.00000260  00000+0 -74764-3 0  9990
2 49218  87.8934 123.4933 0001805  99.6955 260.4378 13.13470236123250
ONEWEB-0357             
1 49219U 21083AK  24079.89597555  .00000000  00000+0 -32772-4 0  9999
2 49219  87.9128  77.4905 0001927  91.5546 268.5808 13.20769165129967
